[{"COMMENT":"GENERATED VIA SPACETRACK.ORG API","ORIGINATOR":"18 SPCS","NORAD_CAT_ID":"43476","OBJECT_NAME":"GRACE-FO 1","OBJECT_TYPE":"PAYLOAD","CLASSIFICATION_TYPE":"U","INTLDES":"18047A","EPOCH":"2023-06-27 10:39:50","EPOCH_MICROSECONDS":"852448","MEAN_MOTION":"15.26231397","ECCENTRICITY":"0.0014056","INCLINATION":"88.9878","RA_OF_ASC_NODE":"347.7638","ARG_OF_PERICENTER":"9.3704","MEAN_ANOMALY":"350.7804","EPHEMERIS_TYPE":"0","ELEMENT_SET_NO":"999","REV_AT_EPOCH":"28356","BSTAR":"0.00012207","MEAN_MOTION_DOT":"0.00003196","MEAN_MOTION_DDOT":"0","FILE":"3944041","TLE_LINE0":"0 GRACE-FO 1","TLE_LINE1":"1 43476U 18047A   23178.44433857  .00003196  00000-0  12207-3 0  9997","TLE_LINE2":"2 43476  88.9878 347.7638 0014056   9.3704 350.7804 15.26231397283561","OBJECT_ID":"2018-047A","OBJECT_NUMBER":"43476","SEMIMAJOR_AXIS":"6865.227","PERIOD":"94.350","APOGEE":"496.742","PERIGEE":"477.443","DECAYED":"0"},{"COMMENT":"GENERATED VIA SPACETRACK.ORG API","ORIGINATOR":"18 SPCS","NORAD_CAT_ID":"43476","OBJECT_NAME":"GRACE-FO 1","OBJECT_TYPE":"PAYLOAD","CLASSIFICATION_TYPE":"U","INTLDES":"18047A","EPOCH":"2023-06-28 16:33:44","EPOCH_MICROSECONDS":"684064","MEAN_MOTION":"15.26238588","ECCENTRICITY":"0.0013819","INCLINATION":"88.9877","RA_OF_ASC_NODE":"347.5944","ARG_OF_PERICENTER":"4.6919","MEAN_ANOMALY":"355.4457","EPHEMERIS_TYPE":"0","ELEMENT_SET_NO":"999","REV_AT_EPOCH":"28375","BSTAR":"0.00011142","MEAN_MOTION_DOT":"0.0000292","MEAN_MOTION_DDOT":"0","FILE":"3945091","TLE_LINE0":"0 GRACE-FO 1","TLE_LINE1":"1 43476U 18047A   23179.69010051  .00002920  00000-0  11142-3 0  9993","TLE_LINE2":"2 43476  88.9877 347.5944 0013819   4.6919 355.4457 15.26238588283756","OBJECT_ID":"2018-047A","OBJECT_NUMBER":"43476","SEMIMAJOR_AXIS":"6865.206","PERIOD":"94.350","APOGEE":"496.558","PERIGEE":"477.584","DECAYED":"0"},{"COMMENT":"GENERATED VIA SPACETRACK.ORG API","ORIGINATOR":"18 SPCS","NORAD_CAT_ID":"43476","OBJECT_NAME":"GRACE-FO 1","OBJECT_TYPE":"PAYLOAD","CLASSIFICATION_TYPE":"U","INTLDES":"18047A","EPOCH":"2023-06-29 17:44:23","EPOCH_MICROSECONDS":"323776","MEAN_MOTION":"15.26244228","ECCENTRICITY":"0.0013633","INCLINATION":"88.9875","RA_OF_ASC_NODE":"347.4516","ARG_OF_PERICENTER":"0.6803","MEAN_ANOMALY":"359.4462","EPHEMERIS_TYPE":"0","ELEMENT_SET_NO":"999","REV_AT_EPOCH":"28391","BSTAR":"0.00010539","MEAN_MOTION_DOT":"0.00002764","MEAN_MOTION_DDOT":"0","FILE":"3945851","TLE_LINE0":"0 GRACE-FO 1","TLE_LINE1":"1 43476U 18047A   23180.73915884  .00002764  00000-0  10539-3 0  9993","TLE_LINE2":"2 43476  88.9875 347.4516 0013633   0.6803 359.4462 15.26244228283916","OBJECT_ID":"2018-047A","OBJECT_NUMBER":"43476","SEMIMAJOR_AXIS":"6865.189","PERIOD":"94.349","APOGEE":"496.413","PERIGEE":"477.694","DECAYED":"0"},{"COMMENT":"GENERATED VIA SPACETRACK.ORG API","ORIGINATOR":"18 SPCS","NORAD_CAT_ID":"43476","OBJECT_NAME":"GRACE-FO 1","OBJECT_TYPE":"PAYLOAD","CLASSIFICATION_TYPE":"U","INTLDES":"18047A","EPOCH":"2023-07-01 01:12:41","EPOCH_MICROSECONDS":"128128","MEAN_MOTION":"15.26251083","ECCENTRICITY":"0.0013362","INCLINATION":"88.9874","RA_OF_ASC_NODE":"347.2732","ARG_OF_PERICENTER":"355.5328","MEAN_ANOMALY":"4.5799","EPHEMERIS_TYPE":"0","ELEMENT_SET_NO":"999","REV_AT_EPOCH":"28411","BSTAR":"0.000098172","MEAN_MOTION_DOT":"0.00002577","MEAN_MOTION_DDOT":"0","FILE":"3946422","TLE_LINE0":"0 GRACE-FO 1","TLE_LINE1":"1 43476U 18047A   23182.05047602  .00002577  00000-0  98172-4 0  9996","TLE_LINE2":"2 43476  88.9874 347.2732 0013362 355.5328   4.5799 15.26251083284117","OBJECT_ID":"2018-047A","OBJECT_NUMBER":"43476","SEMIMAJOR_AXIS":"6865.168","PERIOD":"94.349","APOGEE":"496.206","PERIGEE":"477.860","DECAYED":"0"},{"COMMENT":"GENERATED VIA SPACETRACK.ORG API","ORIGINATOR":"18 SPCS","NORAD_CAT_ID":"43476","OBJECT_NAME":"GRACE-FO 1","OBJECT_TYPE":"PAYLOAD","CLASSIFICATION_TYPE":"U","INTLDES":"18047A","EPOCH":"2023-07-02 11:49:48","EPOCH_MICROSECONDS":"200736","MEAN_MOTION":"15.26257818","ECCENTRICITY":"0.0013073","INCLINATION":"88.9875","RA_OF_ASC_NODE":"347.0768","ARG_OF_PERICENTER":"349.8292","MEAN_ANOMALY":"10.269","EPHEMERIS_TYPE":"0","ELEMENT_SET_NO":"999","REV_AT_EPOCH":"28433","BSTAR":"0.000085432","MEAN_MOTION_DOT":"0.00002247","MEAN_MOTION_DDOT":"0","FILE":"3947531","TLE_LINE0":"0 GRACE-FO 1","TLE_LINE1":"1 43476U 18047A   23183.49291899  .00002247  00000-0  85432-4 0  9993","TLE_LINE2":"2 43476  88.9875 347.0768 0013073 349.8292  10.2690 15.26257818284330","OBJECT_ID":"2018-047A","OBJECT_NUMBER":"43476","SEMIMAJOR_AXIS":"6865.148","PERIOD":"94.348","APOGEE":"495.988","PERIGEE":"478.038","DECAYED":"0"},{"COMMENT":"GENERATED VIA SPACETRACK.ORG API","ORIGINATOR":"18 SPCS","NORAD_CAT_ID":"43476","OBJECT_NAME":"GRACE-FO 1","OBJECT_TYPE":"PAYLOAD","CLASSIFICATION_TYPE":"U","INTLDES":"18047A","EPOCH":"2023-07-03 17:43:40","EPOCH_MICROSECONDS":"215360","MEAN_MOTION":"15.26264367","ECCENTRICITY":"0.0012847","INCLINATION":"88.9878","RA_OF_ASC_NODE":"346.9073","ARG_OF_PERICENTER":"344.837","MEAN_ANOMALY":"15.2492","EPHEMERIS_TYPE":"0","ELEMENT_SET_NO":"999","REV_AT_EPOCH":"28452","BSTAR":"0.000093374","MEAN_MOTION_DOT":"0.00002453","MEAN_MOTION_DDOT":"0","FILE":"3948715","TLE_LINE0":"0 GRACE-FO 1","TLE_LINE1":"1 43476U 18047A   23184.73865990  .00002453  00000-0  93374-4 0  9993","TLE_LINE2":"2 43476  88.9878 346.9073 0012847 344.8370  15.2492 15.26264367284523","OBJECT_ID":"2018-047A","OBJECT_NUMBER":"43476","SEMIMAJOR_AXIS":"6865.128","PERIOD":"94.348","APOGEE":"495.813","PERIGEE":"478.174","DECAYED":"0"},{"COMMENT":"GENERATED VIA SPACETRACK.ORG API","ORIGINATOR":"18 SPCS","NORAD_CAT_ID":"43476","OBJECT_NAME":"GRACE-FO 1","OBJECT_TYPE":"PAYLOAD","CLASSIFICATION_TYPE":"U","INTLDES":"18047A","EPOCH":"2023-07-04 23:37:31","EPOCH_MICROSECONDS":"809216","MEAN_MOTION":"15.26270799","ECCENTRICITY":"0.0012638","INCLINATION":"88.9881","RA_OF_ASC_NODE":"346.7378","ARG_OF_PERICENTER":"339.67","MEAN_ANOMALY":"20.4044","EPHEMERIS_TYPE":"0","ELEMENT_SET_NO":"999","REV_AT_EPOCH":"28471","BSTAR":"0.000099587","MEAN_MOTION_DOT":"0.00002615","MEAN_MOTION_DDOT":"0","FILE":"3949757","TLE_LINE0":"0 GRACE-FO 1","TLE_LINE1":"1 43476U 18047A   23185.98439594  .00002615  00000-0  99587-4 0  9990","TLE_LINE2":"2 43476  88.9881 346.7378 0012638 339.6700  20.4044 15.26270799284718","OBJECT_ID":"2018-047A","OBJECT_NUMBER":"43476","SEMIMAJOR_AXIS":"6865.109","PERIOD":"94.348","APOGEE":"495.650","PERIGEE":"478.298","DECAYED":"0"},{"COMMENT":"GENERATED VIA SPACETRACK.ORG API","ORIGINATOR":"18 SPCS","NORAD_CAT_ID":"43476","OBJECT_NAME":"GRACE-FO 1","OBJECT_TYPE":"PAYLOAD","CLASSIFICATION_TYPE":"U","INTLDES":"18047A","EPOCH":"2023-07-06 02:22:33","EPOCH_MICROSECONDS":"417696","MEAN_MOTION":"15.2627603","ECCENTRICITY":"0.0012435","INCLINATION":"88.9884","RA_OF_ASC_NODE":"346.5863","ARG_OF_PERICENTER":"334.9352","MEAN_ANOMALY":"25.1291","EPHEMERIS_TYPE":"0","ELEMENT_SET_NO":"999","REV_AT_EPOCH":"28488","BSTAR":"0.000096478","MEAN_MOTION_DOT":"0.00002534","MEAN_MOTION_DDOT":"0","FILE":"3950584","TLE_LINE0":"0 GRACE-FO 1","TLE_LINE1":"1 43476U 18047A   23187.09899789  .00002534  00000-0  96478-4 0  9996","TLE_LINE2":"2 43476  88.9884 346.5863 0012435 334.9352  25.1291 15.26276030284882","OBJECT_ID":"2018-047A","OBJECT_NUMBER":"43476","SEMIMAJOR_AXIS":"6865.093","PERIOD":"94.347","APOGEE":"495.495","PERIGEE":"478.422","DECAYED":"0"},{"COMMENT":"GENERATED VIA SPACETRACK.ORG API","ORIGINATOR":"18 SPCS","NORAD_CAT_ID":"43476","OBJECT_NAME":"GRACE-FO 1","OBJECT_TYPE":"PAYLOAD","CLASSIFICATION_TYPE":"U","INTLDES":"18047A","EPOCH":"2023-07-07 03:33:09","EPOCH_MICROSECONDS":"912960","MEAN_MOTION":"15.26282235","ECCENTRICITY":"0.0012235","INCLINATION":"88.9886","RA_OF_ASC_NODE":"346.4437","ARG_OF_PERICENTER":"330.4661","MEAN_ANOMALY":"29.5895","EPHEMERIS_TYPE":"0","ELEMENT_SET_NO":"999","REV_AT_EPOCH":"28504","BSTAR":"0.00010936","MEAN_MOTION_DOT":"0.00002869","MEAN_MOTION_DDOT":"0","FILE":"3951561","TLE_LINE0":"0 GRACE-FO 1","TLE_LINE1":"1 43476U 18047A   23188.14803140  .00002869  00000-0  10936-3 0  9994","TLE_LINE2":"2 43476  88.9886 346.4437 0012235 330.4661  29.5895 15.26282235285043","OBJECT_ID":"2018-047A","OBJECT_NUMBER":"43476","SEMIMAJOR_AXIS":"6865.075","PERIOD":"94.347","APOGEE":"495.339","PERIGEE":"478.540","DECAYED":"0"},{"COMMENT":"GENERATED VIA SPACETRACK.ORG API","ORIGINATOR":"18 SPCS","NORAD_CAT_ID":"43476","OBJECT_NAME":"GRACE-FO 1","OBJECT_TYPE":"PAYLOAD","CLASSIFICATION_TYPE":"U","INTLDES":"18047A","EPOCH":"2023-07-08 09:27:00","EPOCH_MICROSECONDS":"288576","MEAN_MOTION":"15.26289667","ECCENTRICITY":"0.0012033","INCLINATION":"88.9888","RA_OF_ASC_NODE":"346.2745","ARG_OF_PERICENTER":"325.1086","MEAN_ANOMALY":"34.9372","EPHEMERIS_TYPE":"0","ELEMENT_SET_NO":"999","REV_AT_EPOCH":"28523","BSTAR":"0.00011922","MEAN_MOTION_DOT":"0.00003125","MEAN_MOTION_DDOT":"0","FILE":"3952634","TLE_LINE0":"0 GRACE-FO 1","TLE_LINE1":"1 43476U 18047A   23189.39375334  .00003125  00000-0  11922-3 0  9993","TLE_LINE2":"2 43476  88.9888 346.2745 0012033 325.1086  34.9372 15.26289667285230","OBJECT_ID":"2018-047A","OBJECT_NUMBER":"43476","SEMIMAJOR_AXIS":"6865.053","PERIOD":"94.346","APOGEE":"495.178","PERIGEE":"478.657","DECAYED":"0"}]